[{"OBJECT_NAME":"STARLINK-34071","OBJECT_ID":"2025-095W","EPOCH":"2026-03-09T14:43:10.405632","MEAN_MOTION":15.2763434,"ECCENTRICITY":0.00012893,"INCLINATION":43.0008,"RA_OF_ASC_NODE":176.8681,"ARG_OF_PERICENTER":259.3594,"MEAN_ANOMALY":100.7112,"EPHEMERIS_TYPE":0,"CLASSIFICATION_TYPE":"U","NORAD_CAT_ID":63910,"ELEMENT_SET_NO":999,"REV_AT_EPOCH":4776,"BSTAR":0.0012518852,"MEAN_MOTION_DOT":0.00034405,"MEAN_MOTION_DDOT":0},{"OBJECT_NAME":"FENGYUN 1C DEB","OBJECT_ID":"1999-025DCL","EPOCH":"2026-03-08T01:32:38.043744","MEAN_MOTION":14.80481308,"ECCENTRICITY":0.0218035,"INCLINATION":98.8149,"RA_OF_ASC_NODE":16.0796,"ARG_OF_PERICENTER":161.8742,"MEAN_ANOMALY":199.0399,"EPHEMERIS_TYPE":0,"CLASSIFICATION_TYPE":"U","NORAD_CAT_ID":33603,"ELEMENT_SET_NO":999,"REV_AT_EPOCH":119,"BSTAR":0.0001936534,"MEAN_MOTION_DOT":2.149e-5,"MEAN_MOTION_DDOT":0}]
